STAR ONE D2             
1 49055U 21069A   26157.33864490  .00000000  00000+0  00000+0 0  9997
2 49055   0.0124 343.7602 0001782 114.3976 208.4181  1.00269267 17832
EUTELSAT QUANTUM        
1 49056U 21069B   26157.89995027  .00000140  00000+0  00000+0 0  9995
2 49056   0.0100 339.1437 0002419  93.1197 194.7305  1.00271830 17822
ZHONGXING-2E            
1 49062U 21071A   26157.16136403 -.00000278  00000+0  00000+0 0  9993
2 49062   0.0442  96.3846 0002268  44.5088 269.8323  1.00269498 17927
TJS-7                   
1 49115U 21077A   26157.82673154 -.00000110  00000+0  00000+0 0  9995
2 49115   0.4816  86.1996 0002515 333.7397  33.4719  1.00271371  9455
CHINASAT 9B             
1 49125U 21080A   26157.87981449 -.00000299  00000+0  00000+0 0  9992
2 49125   0.0242  78.3543 0001612  20.7035 214.3785  1.00274192 17541
SHIJIAN-21 (SJ-21)      
1 49330U 21094A   26157.78247755 -.00000334  00000+0  00000+0 0  9990
2 49330   5.0876  61.2410 0049463 167.9793  75.6413  1.00276666  5251
SES-17                  
1 49332U 21095A   26156.54993972 -.00000260  00000+0  00000+0 0  9993
2 49332   0.0256  35.0891 0001256  56.0020 293.7793  1.00274659 17731
SYRACUSE 4A             
1 49333U 21095B   26156.21578373  .00000147  00000+0  00000+0 0  9995
2 49333   0.0167 333.7085 0001352  98.7464 304.3786  1.00269576 17821
QZS-1R (MICHIBIKI-1R)   
1 49336U 21096A   26157.65764851 -.00000234  00000+0  00000+0 0  9994
2 49336  37.4401  79.7406 0754231 271.5748 275.1259  1.00259679 16901
ZHONGXING-1D            
1 49505U 21114A   26157.87229071 -.00000322  00000+0  00000+0 0  9995
2 49505   0.0424 246.7824 0000093 313.2345 139.4674  1.00275029 16716
STPSAT-6                
1 49817U 21118A   26157.61055035 -.00000032  00000+0  00000+0 0  9992
2 49817   0.2926  85.5220 0001430 261.0079  16.6002  1.00273627 16465
EXPRESS AMU-7           
1 50001U 21123A   26156.87709825 -.00000230  00000+0  00000+0 0  9995
2 50001   0.0152 294.3911 0000176 101.4015 319.2735  1.00272297 16424
EXPRESS AMU-3           
1 50002U 21123B   26157.00744516  .00000000  00000+0  00000+0 0  9992
2 50002   0.0232 311.1213 0000462 358.1557  50.7189  1.00270153  6920
TIANLIAN 2-02           
1 50005U 21124A   26157.80913812  .00000000  00000+0  00000+0 0  9991
2 50005   0.7742  86.2896 0001167 223.9450  47.2551  1.00272726 16515
TURKSAT 5B              
1 50212U 21126A   26157.64097049  .00000159  00000+0  00000+0 0  9995
2 50212   0.0679 340.4606 0003716  16.3744 170.9802  1.00273804 16198
INMARSAT 6-F1           
1 50319U 21128A   26156.86496485 -.00000159  00000+0  00000+0 0  9996
2 50319   0.0148 301.3078 0000358 217.0808 131.0461  1.00270082 16145
SHIYAN-12 01 (SY-12 01) 
1 50321U 21129A   26157.72449881  .00000032  00000+0  00000+0 0  9993
2 50321   3.6467  80.0511 0003482 289.2234 215.5580  1.00038142 16395
SHIYAN-12 02 (SY-12 02) 
1 50322U 21129B   26157.72640056 -.00000177  00000+0  00000+0 0  9992
2 50322   3.6464  80.0578 0002701  52.3961 104.8461  1.00492150 16396
TJS-9                   
1 50574U 21135A   26157.87367737 -.00000285  00000+0  00000+0 0  9996
2 50574   0.0616 256.3668 0004880 151.5325 299.1231  1.00272805 16328
USA 324                 
1 51280U 22006A   26157.08795008 -.00000058  00000+0  00000+0 0  9996
2 51280   0.7690  83.2777 0002840 165.6787 110.1567  1.00289779 16021
GOES 18                 
1 51850U 22021A   26157.74806534  .00000110  00000+0  00000+0 0  9994
2 51850   0.0388 141.8689 0000617 351.6439 253.9544  1.00272099  6482
ZHONGXING-6D            
1 52255U 22038A   26156.94597950 -.00000341  00000+0  00000+0 0  9999
2 52255   0.0356  95.0564 0000270 259.5566   5.3925  1.00270544 15318
NILESAT 301             
1 52817U 22061A   26157.77388367 -.00000044  00000+0  00000+0 0  9991
2 52817   0.0549  24.6235 0005556  18.7760 123.3839  1.00272059 14634
CMS-02 (GSAT-24)        
1 52903U 22067A   26157.79164559 -.00000151  00000+0  00000+0 0  9999
2 52903   0.0183  81.3864 0001846 292.4917 249.3297  1.00271484 14509
MEASAT 3D               
1 52904U 22067B   26157.87108438 -.00000228  00000+0  00000+0 0  9998
2 52904   0.0276 358.9541 0001252  38.0787 263.3463  1.00270569 14546
SES-22                  
1 52933U 22071A   26157.53382991  .00000118  00000+0  00000+0 0  9993
2 52933   0.0089  13.6621 0001294  53.7927 240.6786  1.00273368  7414
WFOV (USA 332)          
1 52940U 22073A   26157.79882472 -.00000349  00000+0  00000+0 0  9997
2 52940   3.6834  78.6602 0002154 246.7790 336.6100  1.00272947 14266
TIANLIAN 2-03           
1 53100U 22078A   26157.77735036  .00000086  00000+0  00000+0 0  9999
2 53100   0.6459  76.8193 0001553 316.7184 152.0885  1.00272467 14444
SBIRS GEO-6 (USA 336)   
1 53355U 22092A   26157.16111184 -.00000281  00000+0  00000+0 0  9990
2 53355   3.2771 317.2986 0002127 115.3624  18.9374  1.00271431 14122
EUTELSAT KONNECT VHTS   
1 53765U 22110A   26157.77579036  .00000031  00000+0  00000+0 0  9999
2 53765   0.0636 103.8584 0002785 317.7315 115.6023  1.00269786  6734
ZHONGXING-1E            
1 53813U 22112A   26157.86263203 -.00000136  00000+0  00000+0 0  9998
2 53813   0.0428 106.6010 0000313 253.2640 287.3712  1.00270959 13747
SES-20                  
1 53960U 22123A   26157.61219703 -.00000087  00000+0  00000+0 0  9997
2 53960   0.0357  77.0925 0001990  13.4537 281.7790  1.00267453 13424
