OBJECT_NAME,OBJECT_ID,EPOCH,MEAN_MOTION,ECCENTRICITY,INCLINATION,RA_OF_ASC_NODE,ARG_OF_PERICENTER,MEAN_ANOMALY,EPHEMERIS_TYPE,CLASSIFICATION_TYPE,NORAD_CAT_ID,ELEMENT_SET_NO,REV_AT_EPOCH,BSTAR,MEAN_MOTION_DOT,MEAN_MOTION_DDOT
STAR ONE D2,2021-069A,2026-06-06T08:07:38.919360,1.00269267,.00017825,0.0124,343.7602,114.3976,208.4181,0,U,49055,999,1783,0,0,0
EUTELSAT QUANTUM,2021-069B,2026-06-06T21:35:55.703328,1.00271830,.0002419,0.0100,339.1437,93.1197,194.7305,0,U,49056,999,1782,0,.14E-5,0
ZHONGXING-2E,2021-071A,2026-06-06T03:52:21.852192,1.00269498,.00022686,0.0442,96.3846,44.5088,269.8323,0,U,49062,999,1792,0,-.278E-5,0
TJS-7,2021-077A,2026-06-06T19:50:29.605056,1.00271371,.0002515,0.4816,86.1996,333.7397,33.4719,0,U,49115,999,945,0,-.11E-5,0
CHINASAT 9B,2021-080A,2026-06-06T21:06:55.971936,1.00274192,.0001612,0.0242,78.3543,20.7035,214.3785,0,U,49125,999,1754,0,-.299E-5,0
SHIJIAN-21 (SJ-21),2021-094A,2026-06-06T18:46:46.060320,1.00276666,.0049463,5.0876,61.2410,167.9793,75.6413,0,U,49330,999,525,0,-.334E-5,0
SES-17,2021-095A,2026-06-05T13:11:54.791808,1.00274659,.00012565,0.0256,35.0891,56.0020,293.7793,0,U,49332,999,1773,0,-.26E-5,0
SYRACUSE 4A,2021-095B,2026-06-05T05:10:43.714272,1.00269576,.0001352,0.0167,333.7085,98.7464,304.3786,0,U,49333,999,1782,0,.147E-5,0
QZS-1R (MICHIBIKI-1R),2021-096A,2026-06-06T15:47:00.831264,1.00259679,.0754231,37.4401,79.7406,271.5748,275.1259,0,U,49336,999,1690,0,-.234E-5,0
ZHONGXING-1D,2021-114A,2026-06-06T20:56:05.917344,1.00275029,.0000093,0.0424,246.7824,313.2345,139.4674,0,U,49505,999,1671,0,-.322E-5,0
STPSAT-6,2021-118A,2026-06-06T14:39:11.550240,1.00273627,.000143,0.2926,85.5220,261.0079,16.6002,0,U,49817,999,1646,0,-.32E-6,0
EXPRESS AMU-7,2021-123A,2026-06-05T21:03:01.288800,1.00272297,.00001769,0.0152,294.3911,101.4015,319.2735,0,U,50001,999,1642,0,-.23E-5,0
EXPRESS AMU-3,2021-123B,2026-06-06T00:10:43.261824,1.00270153,.0000462,0.0232,311.1213,358.1557,50.7189,0,U,50002,999,692,0,0,0
TIANLIAN 2-02,2021-124A,2026-06-06T19:25:09.533568,1.00272726,.0001167,0.7742,86.2896,223.9450,47.2551,0,U,50005,999,1651,0,0,0
TURKSAT 5B,2021-126A,2026-06-06T15:22:59.850336,1.00273804,.0003716,0.0679,340.4606,16.3744,170.9802,0,U,50212,999,1619,0,.159E-5,0
INMARSAT 6-F1,2021-128A,2026-06-05T20:45:32.963040,1.00270082,.0000358,0.0148,301.3078,217.0808,131.0461,0,U,50319,999,1614,0,-.159E-5,0
SHIYAN-12 01 (SY-12 01),2021-129A,2026-06-06T17:23:16.697184,1.00038142,.0003482,3.6467,80.0511,289.2234,215.5580,0,U,50321,999,1639,0,.32E-6,0
SHIYAN-12 02 (SY-12 02),2021-129B,2026-06-06T17:26:01.008384,1.00492150,.0002701,3.6464,80.0578,52.3961,104.8461,0,U,50322,999,1639,0,-.177E-5,0
TJS-9,2021-135A,2026-06-06T20:58:05.724768,1.00272805,.000488,0.0616,256.3668,151.5325,299.1231,0,U,50574,999,1632,0,-.285E-5,0
USA 324,2022-006A,2026-06-06T02:06:38.886912,1.00289779,.000284,0.7690,83.2777,165.6787,110.1567,0,U,51280,999,1602,0,-.58E-6,0
GOES 18,2022-021A,2026-06-06T17:57:12.845376,1.00272099,.0000617,0.0388,141.8689,351.6439,253.9544,0,U,51850,999,648,0,.11E-5,0
ZHONGXING-6D,2022-038A,2026-06-05T22:42:12.628800,1.00270544,.000027,0.0356,95.0564,259.5566,5.3925,0,U,52255,999,1531,0,-.341E-5,0
NILESAT 301,2022-061A,2026-06-06T18:34:23.549088,1.00272059,.0005556,0.0549,24.6235,18.7760,123.3839,0,U,52817,999,1463,0,-.44E-6,0
CMS-02 (GSAT-24),2022-067A,2026-06-06T18:59:58.178976,1.00271484,.0001846,0.0183,81.3864,292.4917,249.3297,0,U,52903,999,1450,0,-.151E-5,0
MEASAT 3D,2022-067B,2026-06-06T20:54:21.690432,1.00270569,.0001252,0.0276,358.9541,38.0787,263.3463,0,U,52904,999,1454,0,-.228E-5,0
SES-22,2022-071A,2026-06-06T12:48:42.904224,1.00273368,.0001294,0.0089,13.6621,53.7927,240.6786,0,U,52933,999,741,0,.118E-5,0
WFOV (USA 332),2022-073A,2026-06-06T19:10:18.455808,1.00272947,.0002154,3.6834,78.6602,246.7790,336.6100,0,U,52940,999,1426,0,-.349E-5,0
TIANLIAN 2-03,2022-078A,2026-06-06T18:39:23.071104,1.00272467,.0001553,0.6459,76.8193,316.7184,152.0885,0,U,53100,999,1444,0,.86E-6,0
SBIRS GEO-6 (USA 336),2022-092A,2026-06-06T03:52:00.062976,1.00271431,.0002127,3.2771,317.2986,115.3624,18.9374,0,U,53355,999,1412,0,-.281E-5,0
EUTELSAT KONNECT VHTS,2022-110A,2026-06-06T18:37:08.287104,1.00269786,.0002785,0.0636,103.8584,317.7315,115.6023,0,U,53765,999,673,0,.31E-6,0
ZHONGXING-1E,2022-112A,2026-06-06T20:42:11.407392,1.00270959,.0000313,0.0428,106.6010,253.2640,287.3712,0,U,53813,999,1374,0,-.136E-5,0
SES-20,2022-123A,2026-06-06T14:41:33.823392,1.00267453,.000199,0.0357,77.0925,13.4537,281.7790,0,U,53960,999,1342,0,-.87E-6,0
